#aV2016  4 11  0  0  0.00000000     288 DD+AD WGS84 FIT  NGA
## 1892  86400.00000000   300.00000000 57489 0.0000000000000
+   31     1  2  3  5  6  7  8  9 10 11 12 13 14 15 16 17 18
+         19 20 21 22 23 24 25 26 27 28 29 30 31 32  0  0  0
+          0  0  0  0  0  0  0  0  0  0  0  0  0  0  0  0  0
+          0  0  0  0  0  0  0  0  0  0  0  0  0  0  0  0  0
+          0  0  0  0  0  0  0  0  0  0  0  0  0  0  0  0  0
++         2  2  2  2  2  2  2  2  2  2  2  2  2  2  2  2  2
++         2  2  2  2  2  2  2  2  2  2  2  2  2  2  0  0  0
++         0  0  0  0  0  0  0  0  0  0  0  0  0  0  0  0  0
++         0  0  0  0  0  0  0  0  0  0  0  0  0  0  0  0  0
++         0  0  0  0  0  0  0  0  0  0  0  0  0  0  0  0  0
%c cc cc ccc ccc cccc cccc cccc cccc ccccc ccccc ccccc ccccc
%c cc cc ccc ccc cccc cccc cccc cccc ccccc ccccc ccccc ccccc
%f  0.0000000  0.000000000  0.00000000000  0.000000000000000
%f  0.0000000  0.000000000  0.00000000000  0.000000000000000
%i    0    0    0    0      0      0      0      0         0
%i    0    0    0    0      0      0      0      0         0
/*      NGA, ST. LOUIS,MO.                                  
/*   EPHEMERIS COMPUTED FROM 2 DAYS OF DATA                 
/*   EPOCHA v2.4 SMOOTHER                                   
/*   G1762 IERS2010 SATAF SATAPC                            
*  2016  4 11  1 40  0.00000000
P  1  15371.543358   -922.491160  21585.449649     16.968058                    
V  1   7632.778017  26476.534411  -4065.245248      0.011409                    
P  2 -14419.579665 -20166.891650  -9627.953027    597.638874                    
V  2  -1513.029836 -12971.024811  27770.949947     -0.017756                    
P  3  21272.802490 -10446.889891  12006.566385    -46.148133                    
V  3  -8663.379887  12758.947497  26450.893770     -0.041231                    
P  5 -13535.302446  -8093.343986 -21454.694723   -129.993536                    
V  5  18074.393240 -20219.788817  -3591.528205      0.032054                    
P  6  -5648.258248 -25763.973393   3138.698435    173.891136                    
V  6   3753.863985   2995.847280  31484.548899      0.056898                    
P  7   8059.170241 -17431.145489 -18037.997547    460.747909                    
V  7   7941.253244  21981.850397 -17954.489807     -0.020065                    
P  8  25961.926083   5688.579271    179.320663    -30.900543                    
V  8   -439.231266   2699.512212 -31778.017002     -0.014738                    
P  9  16278.400928  -9810.979400 -18576.509668    107.489851                    
V  9  22659.756285   6637.310422  16351.623414      0.074694                    
P 10  -6941.386302  21633.374998  13722.843933      5.090322                    
V 10 -13495.688079  11250.725327 -24651.241894     -0.096928                    
P 11  19744.654059   3235.814456  16937.411646   -640.283180                    
V 11  11823.122562  19709.235822 -16954.278874     -0.014570                    
P 12 -20827.829914   6616.215092  14811.498553    375.849416                    
V 12  12620.075216 -14372.306547  24175.682677      0.014057                    
P 13 -22258.814527 -12781.007486  -6777.831075    -10.028214                    
V 13   8756.767391    555.590087 -30492.836298     -0.027095                    
P 14   2634.263195  16204.022772  21166.089298     -7.658600                    
V 14 -25232.781917  -7241.512833   8634.965847     -0.021441                    
P 15 -26449.370725  -2000.526424   3317.031700   -305.895184                    
V 15  -3703.208491  -4094.523273 -30492.862484     -0.017281                    
P 16  11946.174625   8725.823410 -22182.318046    -25.481134                    
V 16 -20356.604746  18953.206747  -3143.015766      0.027963                    
P 17   -161.960175 -15461.189801  21945.659227   -203.001413                    
V 17  26086.078650   7016.949817   5033.433537     -0.003103                    
P 18 -15212.271182  21385.498911   3538.241438    503.328765                    
V 18  -5640.781471    259.177513 -30683.049981      0.041750                    
P 19 -10919.020149 -16227.652214  17551.190497   -525.598009                    
V 19  22245.245714   5580.601179  19124.124374     -0.000673                    
P 20 -20558.871266   7685.578145 -15142.981550    405.166822                    
V 20   9704.241341 -16601.984453 -21770.761255      0.024655                    
P 21  -4840.520305  20633.528308 -15098.949141   -518.573605                    
V 21  -9312.619723 -18710.337664 -21790.332489     -0.014897                    
P 22  18627.340290    834.825540  19226.739051    364.978639                    
V 22 -14626.622508  19067.829195  13352.895488     -0.072838                    
P 23  24270.429754  -2442.522469 -10845.140372   -168.823042                    
V 23  12994.472115   5591.615552  26923.971334     -0.017295                    
P 24 -16423.929333  -2486.165821  20705.105567    -15.312592                    
V 24  -7512.507904 -25342.571719  -8785.845492     -0.005764                    
P 25 -19988.694008  16615.279591   4812.623437   -150.768655                    
V 25   2562.652736  -6208.515699  31494.713318     -0.070778                    
P 26   3373.909704  17049.667071 -20073.990228   -325.939841                    
V 26 -18093.020832  17999.419380  12294.477185     -0.136931                    
P 27  21618.103513  11929.739719 -10030.119600     80.948817                    
V 27 -12780.794242   -750.131340 -28350.968108      0.038785                    
P 28   9183.146291 -20983.601586  14032.385031    515.323807                    
V 28  13208.773675 -10354.891194 -25314.542542      0.026205                    
P 29 -19193.194740   6485.059412 -17136.372635    656.814411                    
V 29 -20494.650545  -7478.474765  20153.841168      0.002584                    
P 30   1899.585583 -24353.735173 -10324.858332    115.488239                    
V 30   5676.417130  12174.907864 -27788.559262      0.035551                    
P 31   6513.495313  25539.795154    524.604358    274.316983                    
V 31  -2840.297553    199.445327  32220.708763     -0.017723                    
P 32   3424.809324  15856.866040  21033.781228      6.483056                    
V 32 -26211.429433  -5150.336862   8145.473509     -0.028049                    
EOF
